{"type": "FeatureCollection", "features": [{"type": "Feature", "geometry": {"type": "Point", "coordinates": [-73.898583, 40.889248]}, "properties": {"stop_id": "101", "name": "Van Cortlandt Park-242 St"}}, {"type": "Feature", "geometry": {"type": "Point", "coordinates": [-73.90087, 40.884667]}, "properties": {"stop_id": "103", "name": "238 St"}}, {"type": "Feature", "geometry": {"type": "Point", "coordinates": [-73.904834, 40.878856]}, "properties": {"stop_id": "104", "name": "231 St"}}, {"type": "Feature", "geometry": {"type": "Point", "coordinates": [-73.909831, 40.874561]}, "properties": {"stop_id": "106", "name": "Marble Hill-225 St"}}, {"type": "Feature", "geometry": {"type": "Point", "coordinates": [-73.915279, 40.869444]}, "properties": {"stop_id": "107", "name": "215 St"}}, {"type": "Feature", "geometry": {"type": "Point", "coordinates": [-73.918822, 40.864621]}, "properties": {"stop_id": "108", "name": "207 St"}}, {"type": "Feature", "geometry": {"type": "Point", "coordinates": [-73.925536, 40.860531]}, "properties": {"stop_id": "109", "name": "Dyckman St"}}, {"type": "Feature", "geometry": {"type": "Point", "coordinates": [-73.929412, 40.855225]}, "properties": {"stop_id": "110", "name": "191 St"}}, {"type": "Feature", "geometry": {"type": "Point", "coordinates": [-73.933596, 40.849505]}, "properties": {"stop_id": "111", "name": "181 St"}}, {"type": "Feature", "geometry": {"type": "Point", "coordinates": [-73.940133, 40.840556]}, "properties": {"stop_id": "112", "name": "168 St-Washington Hts"}}, {"type": "Feature", "geometry": {"type": "Point", "coordinates": [-73.94489, 40.834041]}, "properties": {"stop_id": "113", "name": "157 St"}}, {"type": "Feature", "geometry": {"type": "Point", "coordinates": [-73.95036, 40.826551]}, "properties": {"stop_id": "114", "name": "145 St"}}, {"type": "Feature", "geometry": {"type": "Point", "coordinates": [-73.953676, 40.822008]}, "properties": {"stop_id": "115", "name": "137 St-City College"}}, {"type": "Feature", "geometry": {"type": "Point", "coordinates": [-73.958372, 40.815581]}, "properties": {"stop_id": "116", "name": "125 St"}}, {"type": "Feature", "geometry": {"type": "Point", "coordinates": [-73.96411, 40.807722]}, "properties": {"stop_id": "117", "name": "116 St-Columbia University"}}, {"type": "Feature", "geometry": {"type": "Point", "coordinates": [-73.966847, 40.803967]}, "properties": {"stop_id": "118", "name": "Cathedral Pkwy (110 St)"}}, {"type": "Feature", "geometry": {"type": "Point", "coordinates": [-73.968379, 40.799446]}, "properties": {"stop_id": "119", "name": "103 St"}}, {"type": "Feature", "geometry": {"type": "Point", "coordinates": [-73.972323, 40.793919]}, "properties": {"stop_id": "120", "name": "96 St"}}, {"type": "Feature", "geometry": {"type": "Point", "coordinates": [-73.976218, 40.788644]}, "properties": {"stop_id": "121", "name": "86 St"}}, {"type": "Feature", "geometry": {"type": "Point", "coordinates": [-73.979917, 40.783934]}, "properties": {"stop_id": "122", "name": "79 St"}}, {"type": "Feature", "geometry": {"type": "Point", "coordinates": [-73.98197, 40.778453]}, "properties": {"stop_id": "123", "name": "72 St"}}, {"type": "Feature", "geometry": {"type": "Point", "coordinates": [-73.982209, 40.77344]}, "properties": {"stop_id": "124", "name": "66 St-Lincoln Center"}}, {"type": "Feature", "geometry": {"type": "Point", "coordinates": [-73.981929, 40.768247]}, "properties": {"stop_id": "125", "name": "59 St-Columbus Circle"}}, {"type": "Feature", "geometry": {"type": "Point", "coordinates": [-73.983849, 40.761728]}, "properties": {"stop_id": "126", "name": "50 St"}}, {"type": "Feature", "geometry": {"type": "Point", "coordinates": [-73.987495, 40.75529]}, "properties": {"stop_id": "127", "name": "Times Sq-42 St"}}, {"type": "Feature", "geometry": {"type": "Point", "coordinates": [-73.991057, 40.750373]}, "properties": {"stop_id": "128", "name": "34 St-Penn Station"}}, {"type": "Feature", "geometry": {"type": "Point", "coordinates": [-73.993365, 40.747215]}, "properties": {"stop_id": "129", "name": "28 St"}}, {"type": "Feature", "geometry": {"type": "Point", "coordinates": [-73.995657, 40.744081]}, "properties": {"stop_id": "130", "name": "23 St"}}, {"type": "Feature", "geometry": {"type": "Point", "coordinates": [-73.997871, 40.74104]}, "properties": {"stop_id": "131", "name": "18 St"}}, {"type": "Feature", "geometry": {"type": "Point", "coordinates": [-74.000201, 40.737826]}, "properties": {"stop_id": "132", "name": "14 St"}}, {"type": "Feature", "geometry": {"type": "Point", "coordinates": [-74.002906, 40.733422]}, "properties": {"stop_id": "133", "name": "Christopher St-Stonewall"}}, {"type": "Feature", "geometry": {"type": "Point", "coordinates": [-74.005367, 40.728251]}, "properties": {"stop_id": "134", "name": "Houston St"}}, {"type": "Feature", "geometry": {"type": "Point", "coordinates": [-74.006277, 40.722854]}, "properties": {"stop_id": "135", "name": "Canal St"}}, {"type": "Feature", "geometry": {"type": "Point", "coordinates": [-74.006886, 40.719318]}, "properties": {"stop_id": "136", "name": "Franklin St"}}, {"type": "Feature", "geometry": {"type": "Point", "coordinates": [-74.009266, 40.715478]}, "properties": {"stop_id": "137", "name": "Chambers St"}}, {"type": "Feature", "geometry": {"type": "Point", "coordinates": [-74.012188, 40.711835]}, "properties": {"stop_id": "138", "name": "WTC Cortlandt"}}, {"type": "Feature", "geometry": {"type": "Point", "coordinates": [-74.013783, 40.707513]}, "properties": {"stop_id": "139", "name": "Rector St"}}, {"type": "Feature", "geometry": {"type": "Point", "coordinates": [-74.013664, 40.702068]}, "properties": {"stop_id": "142", "name": "South Ferry"}}]}